CCSDS_OMM_VERS = 2.0
CREATION_DATE  = 
ORIGINATOR     = 

OBJECT_NAME    = DUPLEX
OBJECT_ID      = 1998-067XS
CENTER_NAME    = EARTH
REF_FRAME      = TEME
TIME_SYSTEM    = UTC
MEAN_ELEMENT_THEORY = SGP/SGP4

EPOCH          = 2026-01-18T22:55:54.890688
MEAN_MOTION    = 15.52661821
ECCENTRICITY   = .00020517
INCLINATION    = 51.6323
RA_OF_ASC_NODE = 317.5561
ARG_OF_PERICENTER = 31.7908
MEAN_ANOMALY   = 328.3206

EPHEMERIS_TYPE = 0
CLASSIFICATION_TYPE = U
NORAD_CAT_ID   = 66906
ELEMENT_SET_NO = 999
REV_AT_EPOCH   = 739
BSTAR          = .40398954E-3
MEAN_MOTION_DOT = .24966E-3
MEAN_MOTION_DDOT = 0

CCSDS_OMM_VERS = 2.0
CREATION_DATE  = 
ORIGINATOR     = 

OBJECT_NAME    = 1998-067XT
OBJECT_ID      = 1998-067XT
CENTER_NAME    = EARTH
REF_FRAME      = TEME
TIME_SYSTEM    = UTC
MEAN_ELEMENT_THEORY = SGP/SGP4

EPOCH          = 2026-01-18T22:59:25.825056
MEAN_MOTION    = 15.56924771
ECCENTRICITY   = .00034981
INCLINATION    = 51.6307
RA_OF_ASC_NODE = 316.8222
ARG_OF_PERICENTER = 83.6571
MEAN_ANOMALY   = 276.4819

EPHEMERIS_TYPE = 0
CLASSIFICATION_TYPE = U
NORAD_CAT_ID   = 66907
ELEMENT_SET_NO = 999
REV_AT_EPOCH   = 740
BSTAR          = .1040239E-2
MEAN_MOTION_DOT = .76595E-3
MEAN_MOTION_DDOT = 0

CCSDS_OMM_VERS = 2.0
CREATION_DATE  = 
ORIGINATOR     = 

OBJECT_NAME    = 1998-067XU
OBJECT_ID      = 1998-067XU
CENTER_NAME    = EARTH
REF_FRAME      = TEME
TIME_SYSTEM    = UTC
MEAN_ELEMENT_THEORY = SGP/SGP4

EPOCH          = 2026-01-18T02:56:39.852672
MEAN_MOTION    = 15.56722966
ECCENTRICITY   = .00034288
INCLINATION    = 51.6306
RA_OF_ASC_NODE = 320.9926
ARG_OF_PERICENTER = 74.2601
MEAN_ANOMALY   = 285.8769

EPHEMERIS_TYPE = 0
CLASSIFICATION_TYPE = U
NORAD_CAT_ID   = 66908
ELEMENT_SET_NO = 999
REV_AT_EPOCH   = 727
BSTAR          = .9791961E-3
MEAN_MOTION_DOT = .71482E-3
MEAN_MOTION_DDOT = 0

CCSDS_OMM_VERS = 2.0
CREATION_DATE  = 
ORIGINATOR     = 

OBJECT_NAME    = SILVERSAT
OBJECT_ID      = 1998-067XV
CENTER_NAME    = EARTH
REF_FRAME      = TEME
TIME_SYSTEM    = UTC
MEAN_ELEMENT_THEORY = SGP/SGP4

EPOCH          = 2026-01-18T19:38:21.465600
MEAN_MOTION    = 15.57653699
ECCENTRICITY   = .00037016
INCLINATION    = 51.6307
RA_OF_ASC_NODE = 317.3890
ARG_OF_PERICENTER = 88.3010
MEAN_ANOMALY   = 271.8406

EPHEMERIS_TYPE = 0
CLASSIFICATION_TYPE = U
NORAD_CAT_ID   = 66909
ELEMENT_SET_NO = 999
REV_AT_EPOCH   = 738
BSTAR          = .11161174E-2
MEAN_MOTION_DOT = .84587E-3
MEAN_MOTION_DDOT = 0

CCSDS_OMM_VERS = 2.0
CREATION_DATE  = 
ORIGINATOR     = 

OBJECT_NAME    = 1998-067XW
OBJECT_ID      = 1998-067XW
CENTER_NAME    = EARTH
REF_FRAME      = TEME
TIME_SYSTEM    = UTC
MEAN_ELEMENT_THEORY = SGP/SGP4

EPOCH          = 2026-01-18T22:46:55.898976
MEAN_MOTION    = 15.57186491
ECCENTRICITY   = .00023397
INCLINATION    = 51.6296
RA_OF_ASC_NODE = 316.7609
ARG_OF_PERICENTER = 65.0923
MEAN_ANOMALY   = 295.0311

EPHEMERIS_TYPE = 0
CLASSIFICATION_TYPE = U
NORAD_CAT_ID   = 66910
ELEMENT_SET_NO = 999
REV_AT_EPOCH   = 740
BSTAR          = .90347065E-3
MEAN_MOTION_DOT = .67026E-3
MEAN_MOTION_DDOT = 0

CCSDS_OMM_VERS = 2.0
CREATION_DATE  = 
ORIGINATOR     = 

OBJECT_NAME    = 1998-067XX
OBJECT_ID      = 1998-067XX
CENTER_NAME    = EARTH
REF_FRAME      = TEME
TIME_SYSTEM    = UTC
MEAN_ELEMENT_THEORY = SGP/SGP4

EPOCH          = 2026-01-18T20:47:57.506784
MEAN_MOTION    = 15.58523745
ECCENTRICITY   = .0002463
INCLINATION    = 51.6297
RA_OF_ASC_NODE = 316.9601
ARG_OF_PERICENTER = 88.0569
MEAN_ANOMALY   = 272.0705

EPHEMERIS_TYPE = 0
CLASSIFICATION_TYPE = U
NORAD_CAT_ID   = 66911
ELEMENT_SET_NO = 999
REV_AT_EPOCH   = 738
BSTAR          = .12025823E-2
MEAN_MOTION_DOT = .94326E-3
MEAN_MOTION_DDOT = 0

CCSDS_OMM_VERS = 2.0
CREATION_DATE  = 
ORIGINATOR     = 

OBJECT_NAME    = 1998-067XY
OBJECT_ID      = 1998-067XY
CENTER_NAME    = EARTH
REF_FRAME      = TEME
TIME_SYSTEM    = UTC
MEAN_ELEMENT_THEORY = SGP/SGP4

EPOCH          = 2026-01-18T20:27:03.788352
MEAN_MOTION    = 15.55324654
ECCENTRICITY   = .00032541
INCLINATION    = 51.6309
RA_OF_ASC_NODE = 317.6155
ARG_OF_PERICENTER = 61.8556
MEAN_ANOMALY   = 298.2763

EPHEMERIS_TYPE = 0
CLASSIFICATION_TYPE = U
NORAD_CAT_ID   = 66912
ELEMENT_SET_NO = 999
REV_AT_EPOCH   = 737
BSTAR          = .79902345E-3
MEAN_MOTION_DOT = .55168E-3
MEAN_MOTION_DDOT = 0

