DUPLEX                  
1 66906U 98067XS  26018.95549642  .00024966  00000+0  40399-3 0  9992
2 66906  51.6323 317.5561 0002051  31.7908 328.3206 15.52661821  7393
1998-067XT              
1 66907U 98067XT  26018.95793779  .00076595  00000+0  10402-2 0  9991
2 66907  51.6307 316.8222 0003498  83.6571 276.4819 15.56924771  7405
1998-067XU              
1 66908U 98067XU  26018.12268348  .00071482  00000+0  97920-3 0  9991
2 66908  51.6306 320.9926 0003428  74.2601 285.8769 15.56722966  7270
SILVERSAT               
1 66909U 98067XV  26018.81830400  .00084587  00000+0  11161-2 0  9994
2 66909  51.6307 317.3890 0003701  88.3010 271.8406 15.57653699  7388
1998-067XW              
1 66910U 98067XW  26018.94925809  .00067026  00000+0  90347-3 0  9991
2 66910  51.6296 316.7609 0002339  65.0923 295.0311 15.57186491  7406
1998-067XX              
1 66911U 98067XX  26018.86663781  .00094326  00000+0  12026-2 0  9991
2 66911  51.6297 316.9601 0002463  88.0569 272.0705 15.58523745  7388
1998-067XY              
1 66912U 98067XY  26018.85212718  .00055168  00000+0  79902-3 0  9999
2 66912  51.6309 317.6155 0003254  61.8556 298.2763 15.55324654  7377
